[{"OBJECT_NAME":"STARLINK-34797","OBJECT_ID":"2025-190N","EPOCH":"2026-01-20T17:53:55.529376","MEAN_MOTION":15.30272486,"ECCENTRICITY":0.00014619,"INCLINATION":53.1609,"RA_OF_ASC_NODE":30.953,"ARG_OF_PERICENTER":84.1672,"MEAN_ANOMALY":275.9496,"EPHEMERIS_TYPE":0,"CLASSIFICATION_TYPE":"U","NORAD_CAT_ID":65363,"ELEMENT_SET_NO":999,"REV_AT_EPOCH":2241,"BSTAR":0.0018584117,"MEAN_MOTION_DOT":0.00055216,"MEAN_MOTION_DDOT":0},{"OBJECT_NAME":"STARLINK-34729","OBJECT_ID":"2025-190P","EPOCH":"2026-01-20T23:51:55.254528","MEAN_MOTION":15.30220012,"ECCENTRICITY":7.734e-5,"INCLINATION":53.1598,"RA_OF_ASC_NODE":29.6602,"ARG_OF_PERICENTER":76.5492,"MEAN_ANOMALY":283.5595,"EPHEMERIS_TYPE":0,"CLASSIFICATION_TYPE":"U","NORAD_CAT_ID":65364,"ELEMENT_SET_NO":999,"REV_AT_EPOCH":2287,"BSTAR":0.0021764691,"MEAN_MOTION_DOT":0.00064704,"MEAN_MOTION_DDOT":0},{"OBJECT_NAME":"STARLINK-34710","OBJECT_ID":"2025-190Q","EPOCH":"2026-01-20T10:37:05.682432","MEAN_MOTION":15.30254184,"ECCENTRICITY":0.0001308,"INCLINATION":53.1589,"RA_OF_ASC_NODE":32.6156,"ARG_OF_PERICENTER":82.2136,"MEAN_ANOMALY":277.9013,"EPHEMERIS_TYPE":0,"CLASSIFICATION_TYPE":"U","NORAD_CAT_ID":65365,"ELEMENT_SET_NO":999,"REV_AT_EPOCH":2189,"BSTAR":0.0014090561,"MEAN_MOTION_DOT":0.00041678,"MEAN_MOTION_DDOT":0},{"OBJECT_NAME":"STARLINK-34943","OBJECT_ID":"2025-190R","EPOCH":"2026-01-20T18:13:41.131776","MEAN_MOTION":15.30276844,"ECCENTRICITY":0.00016658,"INCLINATION":53.16,"RA_OF_ASC_NODE":31.0386,"ARG_OF_PERICENTER":87.5833,"MEAN_ANOMALY":272.5359,"EPHEMERIS_TYPE":0,"CLASSIFICATION_TYPE":"U","NORAD_CAT_ID":65366,"ELEMENT_SET_NO":999,"REV_AT_EPOCH":2194,"BSTAR":0.0021129677,"MEAN_MOTION_DOT":0.00062902,"MEAN_MOTION_DDOT":0},{"OBJECT_NAME":"STARLINK-34946","OBJECT_ID":"2025-190S","EPOCH":"2026-01-21T00:11:39.830496","MEAN_MOTION":15.30245069,"ECCENTRICITY":0.00017818,"INCLINATION":53.1607,"RA_OF_ASC_NODE":29.7419,"ARG_OF_PERICENTER":118.0989,"MEAN_ANOMALY":242.0192,"EPHEMERIS_TYPE":0,"CLASSIFICATION_TYPE":"U","NORAD_CAT_ID":65367,"ELEMENT_SET_NO":999,"REV_AT_EPOCH":2245,"BSTAR":0.0015647981,"MEAN_MOTION_DOT":0.0004634,"MEAN_MOTION_DDOT":0},{"OBJECT_NAME":"STARLINK-34259","OBJECT_ID":"2025-190T","EPOCH":"2026-01-20T10:08:13.878240","MEAN_MOTION":15.30239252,"ECCENTRICITY":0.00017654,"INCLINATION":53.1607,"RA_OF_ASC_NODE":32.4869,"ARG_OF_PERICENTER":101.7018,"MEAN_ANOMALY":258.4181,"EPHEMERIS_TYPE":0,"CLASSIFICATION_TYPE":"U","NORAD_CAT_ID":65368,"ELEMENT_SET_NO":999,"REV_AT_EPOCH":2236,"BSTAR":0.0010959694,"MEAN_MOTION_DOT":0.00032281,"MEAN_MOTION_DDOT":0},{"OBJECT_NAME":"STARLINK-34913","OBJECT_ID":"2025-190U","EPOCH":"2026-01-21T00:05:35.739168","MEAN_MOTION":15.30163248,"ECCENTRICITY":0.00023423,"INCLINATION":53.1615,"RA_OF_ASC_NODE":29.7193,"ARG_OF_PERICENTER":95.2471,"MEAN_ANOMALY":264.8797,"EPHEMERIS_TYPE":0,"CLASSIFICATION_TYPE":"U","NORAD_CAT_ID":65369,"ELEMENT_SET_NO":999,"REV_AT_EPOCH":2245,"BSTAR":0.0020752522,"MEAN_MOTION_DOT":0.00061546,"MEAN_MOTION_DDOT":0},{"OBJECT_NAME":"STARLINK-34870","OBJECT_ID":"2025-190V","EPOCH":"2026-01-20T23:53:25.389600","MEAN_MOTION":15.30231081,"ECCENTRICITY":0.00015672,"INCLINATION":53.1597,"RA_OF_ASC_NODE":29.6677,"ARG_OF_PERICENTER":112.3888,"MEAN_ANOMALY":247.7279,"EPHEMERIS_TYPE":0,"CLASSIFICATION_TYPE":"U","NORAD_CAT_ID":65370,"ELEMENT_SET_NO":999,"REV_AT_EPOCH":2198,"BSTAR":0.00098822599,"MEAN_MOTION_DOT":0.00029052,"MEAN_MOTION_DDOT":0},{"OBJECT_NAME":"STARLINK-34869","OBJECT_ID":"2025-190W","EPOCH":"2026-01-20T23:56:28.645728","MEAN_MOTION":15.30160558,"ECCENTRICITY":0.00024488,"INCLINATION":53.1604,"RA_OF_ASC_NODE":29.6783,"ARG_OF_PERICENTER":96.2123,"MEAN_ANOMALY":263.9157,"EPHEMERIS_TYPE":0,"CLASSIFICATION_TYPE":"U","NORAD_CAT_ID":65371,"ELEMENT_SET_NO":999,"REV_AT_EPOCH":2245,"BSTAR":0.0014012702,"MEAN_MOTION_DOT":0.00041324,"MEAN_MOTION_DDOT":0},{"OBJECT_NAME":"STARLINK-34903","OBJECT_ID":"2025-190X","EPOCH":"2026-01-20T23:38:14.371584","MEAN_MOTION":15.30198216,"ECCENTRICITY":0.00034225,"INCLINATION":53.1582,"RA_OF_ASC_NODE":29.5936,"ARG_OF_PERICENTER":91.1919,"MEAN_ANOMALY":268.9474,"EPHEMERIS_TYPE":0,"CLASSIFICATION_TYPE":"U","NORAD_CAT_ID":65372,"ELEMENT_SET_NO":999,"REV_AT_EPOCH":2245,"BSTAR":4.4388e-5,"MEAN_MOTION_DOT":9.54e-6,"MEAN_MOTION_DDOT":0},{"OBJECT_NAME":"STARLINK-34891","OBJECT_ID":"2025-190Y","EPOCH":"2026-01-20T10:32:32.368128","MEAN_MOTION":15.30253797,"ECCENTRICITY":0.00013008,"INCLINATION":53.1595,"RA_OF_ASC_NODE":32.585,"ARG_OF_PERICENTER":91.7457,"MEAN_ANOMALY":268.3693,"EPHEMERIS_TYPE":0,"CLASSIFICATION_TYPE":"U","NORAD_CAT_ID":65373,"ELEMENT_SET_NO":999,"REV_AT_EPOCH":2184,"BSTAR":0.0014295092,"MEAN_MOTION_DOT":0.00042291,"MEAN_MOTION_DDOT":0},{"OBJECT_NAME":"STARLINK-34900","OBJECT_ID":"2025-190Z","EPOCH":"2026-01-20T09:36:18.879264","MEAN_MOTION":15.3023953,"ECCENTRICITY":8.895e-5,"INCLINATION":53.159,"RA_OF_ASC_NODE":32.3453,"ARG_OF_PERICENTER":29.9113,"MEAN_ANOMALY":330.1938,"EPHEMERIS_TYPE":0,"CLASSIFICATION_TYPE":"U","NORAD_CAT_ID":65374,"ELEMENT_SET_NO":999,"REV_AT_EPOCH":2184,"BSTAR":0.0011639351,"MEAN_MOTION_DOT":0.00034315,"MEAN_MOTION_DDOT":0},{"OBJECT_NAME":"STARLINK-34305","OBJECT_ID":"2025-190AA","EPOCH":"2026-01-20T17:23:32.371008","MEAN_MOTION":15.30255809,"ECCENTRICITY":0.00021909,"INCLINATION":53.1583,"RA_OF_ASC_NODE":30.8117,"ARG_OF_PERICENTER":75.9748,"MEAN_ANOMALY":284.1496,"EPHEMERIS_TYPE":0,"CLASSIFICATION_TYPE":"U","NORAD_CAT_ID":65375,"ELEMENT_SET_NO":999,"REV_AT_EPOCH":2241,"BSTAR":0.0018265484,"MEAN_MOTION_DOT":0.00054229,"MEAN_MOTION_DDOT":0},{"OBJECT_NAME":"STARLINK-34249","OBJECT_ID":"2025-190AB","EPOCH":"2026-01-20T18:09:07.433856","MEAN_MOTION":15.30273716,"ECCENTRICITY":0.00018131,"INCLINATION":53.1605,"RA_OF_ASC_NODE":31.0081,"ARG_OF_PERICENTER":95.8594,"MEAN_ANOMALY":264.2614,"EPHEMERIS_TYPE":0,"CLASSIFICATION_TYPE":"U","NORAD_CAT_ID":65376,"ELEMENT_SET_NO":999,"REV_AT_EPOCH":2283,"BSTAR":0.0022746403,"MEAN_MOTION_DOT":0.00067781,"MEAN_MOTION_DDOT":0},{"OBJECT_NAME":"STARLINK-34879","OBJECT_ID":"2025-190AC","EPOCH":"2026-01-20T17:11:22.622784","MEAN_MOTION":15.30293596,"ECCENTRICITY":0.00015837,"INCLINATION":53.1576,"RA_OF_ASC_NODE":30.7595,"ARG_OF_PERICENTER":48.4827,"MEAN_ANOMALY":311.631,"EPHEMERIS_TYPE":0,"CLASSIFICATION_TYPE":"U","NORAD_CAT_ID":65377,"ELEMENT_SET_NO":999,"REV_AT_EPOCH":2241,"BSTAR":0.0028810655,"MEAN_MOTION_DOT":0.00086215,"MEAN_MOTION_DDOT":0},{"OBJECT_NAME":"STARLINK-34912","OBJECT_ID":"2025-190AD","EPOCH":"2026-01-20T10:46:03.232128","MEAN_MOTION":15.30241521,"ECCENTRICITY":0.00012912,"INCLINATION":53.1579,"RA_OF_ASC_NODE":31.934,"ARG_OF_PERICENTER":86.462,"MEAN_ANOMALY":273.6529,"EPHEMERIS_TYPE":0,"CLASSIFICATION_TYPE":"U","NORAD_CAT_ID":65378,"ELEMENT_SET_NO":999,"REV_AT_EPOCH":2237,"BSTAR":0.0012573091,"MEAN_MOTION_DOT":0.00037113,"MEAN_MOTION_DDOT":0}]
