STARLINK-34797          
1 65363U 25190N   26020.74578159  .00055216  00000+0  18584-2 0  9992
2 65363  53.1609  30.9530 0001461  84.1672 275.9496 15.30272486 22418
STARLINK-34729          
1 65364U 25190P   26020.99438952  .00064704  00000+0  21765-2 0  9993
2 65364  53.1598  29.6602 0000773  76.5492 283.5595 15.30220012 22874
STARLINK-34710          
1 65365U 25190Q   26020.44242688  .00041678  00000+0  14091-2 0  9992
2 65365  53.1589  32.6156 0001308  82.2136 277.9013 15.30254184 21897
STARLINK-34943          
1 65366U 25190R   26020.75950384  .00062902  00000+0  21130-2 0  9991
2 65366  53.1600  31.0386 0001665  87.5833 272.5359 15.30276844 21945
STARLINK-34946          
1 65367U 25190S   26021.00809989  .00046340  00000+0  15648-2 0  9990
2 65367  53.1607  29.7419 0001781 118.0989 242.0192 15.30245069 22454
STARLINK-34259          
1 65368U 25190T   26020.42238285  .00032281  00000+0  10960-2 0  9992
2 65368  53.1607  32.4869 0001765 101.7018 258.4181 15.30239252 22365
STARLINK-34913          
1 65369U 25190U   26021.00388587  .00061546  00000+0  20753-2 0  9996
2 65369  53.1615  29.7193 0002342  95.2471 264.8797 15.30163248 22451
STARLINK-34870          
1 65370U 25190V   26020.99543275  .00029052  00000+0  98823-3 0  9992
2 65370  53.1597  29.6677 0001567 112.3888 247.7279 15.30231081 21982
STARLINK-34869          
1 65371U 25190W   26020.99755377  .00041324  00000+0  14013-2 0  9995
2 65371  53.1604  29.6783 0002448  96.2123 263.9157 15.30160558 22459
STARLINK-34903          
1 65372U 25190X   26020.98488856  .00000954  00000+0  44388-4 0  9994
2 65372  53.1582  29.5936 0003422  91.1919 268.9474 15.30198216 22453
STARLINK-34891          
1 65373U 25190Y   26020.43926352  .00042291  00000+0  14295-2 0  9995
2 65373  53.1595  32.5850 0001300  91.7457 268.3693 15.30253797 21848
STARLINK-34900          
1 65374U 25190Z   26020.40021851  .00034315  00000+0  11639-2 0  9990
2 65374  53.1590  32.3453 0000889  29.9113 330.1938 15.30239530 21843
STARLINK-34305          
1 65375U 25190AA  26020.72468022  .00054229  00000+0  18265-2 0  9999
2 65375  53.1583  30.8117 0002190  75.9748 284.1496 15.30255809 22416
STARLINK-34249          
1 65376U 25190AB  26020.75633604  .00067781  00000+0  22746-2 0  9999
2 65376  53.1605  31.0081 0001813  95.8594 264.2614 15.30273716 22830
STARLINK-34879          
1 65377U 25190AC  26020.71623406  .00086215  00000+0  28811-2 0  9997
2 65377  53.1576  30.7595 0001583  48.4827 311.6310 15.30293596 22413
STARLINK-34912          
1 65378U 25190AD  26020.44864852  .00037113  00000+0  12573-2 0  9991
2 65378  53.1579  31.9340 0001291  86.4620 273.6529 15.30241521 22372
